{
"type": "FeatureCollection",
"name": "kohteet",
"crs": { "type": "name", "properties": { "name": "urn:ogc:def:crs:OGC:1.3:CRS84" } },
"features": [
{ "type": "Feature", "properties": { "fid_1": 1, "tunnus": "63", "potentiaali": "paikallinen", "kuva1": "https://raw.githubusercontent.com/MarkusHytonenPD/maasto/main/projektit/Heinlansi_rakult/kuvat/ky_63_kuva1.jpg", "kuva2": "https://raw.githubusercontent.com/MarkusHytonenPD/maasto/main/projektit/Heinlansi_rakult/kuvat/ky_63_kuva2.jpg", "kuva3": "", "muok": null, "huom": null, "suojeluhalu": "ei", "nimi": null, "vtj_prt": "102496631X", "käyttötarkoitus (vanha luokitus) (selite)": "Talousrakennukset", "vuosi": 1800.0, "krit_1": null, "krit_yht": null, "esikars": 0.0, "lahde": "Muu 1930 käytössä", "tila": "valmis" }, "geometry": { "type": "Point", "coordinates": [ 28.541595201587398, 62.32675910956786 ] } },
{ "type": "Feature", "properties": { "fid_1": 2, "tunnus": "21", "potentiaali": "ei arvoja", "kuva1": "https://raw.githubusercontent.com/MarkusHytonenPD/maasto/main/projektit/Heinlansi_rakult/kuvat/ky_21_kuva1.jpg", "kuva2": "https://raw.githubusercontent.com/MarkusHytonenPD/maasto/main/projektit/Heinlansi_rakult/kuvat/ky_21_kuva2.jpg", "kuva3": "", "muok": null, "huom": null, "suojeluhalu": null, "nimi": null, "vtj_prt": "1024966673", "käyttötarkoitus (vanha luokitus) (selite)": "Yhden asunnon talot", "vuosi": 1890.0, "krit_1": 0.0, "krit_yht": 5.0, "esikars": 1.0, "lahde": "A 1930 käytössä", "tila": "valmis" }, "geometry": { "type": "Point", "coordinates": [ 28.605295612142839, 62.32348857514711 ] } },
{ "type": "Feature", "properties": { "fid_1": 3, "tunnus": "28", "potentiaali": "paikallinen", "kuva1": "https://raw.githubusercontent.com/MarkusHytonenPD/maasto/main/projektit/Heinlansi_rakult/kuvat/ky_28_kuva1.jpg", "kuva2": "", "kuva3": "", "muok": null, "huom": null, "suojeluhalu": null, "nimi": null, "vtj_prt": "102438552D", "käyttötarkoitus (vanha luokitus) (selite)": "Kahden asunnon talot", "vuosi": 1915.0, "krit_1": 0.0, "krit_yht": 3.0, "esikars": 1.0, "lahde": "A 1930 käytössä", "tila": "valmis" }, "geometry": { "type": "Point", "coordinates": [ 28.640378800328428, 62.412888024941928 ] } },
{ "type": "Feature", "properties": { "fid_1": 4, "tunnus": "62", "potentiaali": "ei arvoja", "kuva1": "https://raw.githubusercontent.com/MarkusHytonenPD/maasto/main/projektit/Heinlansi_rakult/kuvat/ky_62_kuva1.jpg", "kuva2": "https://raw.githubusercontent.com/MarkusHytonenPD/maasto/main/projektit/Heinlansi_rakult/kuvat/ky_62_kuva2.jpg", "kuva3": "https://raw.githubusercontent.com/MarkusHytonenPD/maasto/main/projektit/Heinlansi_rakult/kuvat/ky_62_kuva3.jpg", "muok": null, "huom": null, "suojeluhalu": null, "nimi": null, "vtj_prt": "102467020R", "käyttötarkoitus (vanha luokitus) (selite)": "Yhden asunnon talot", "vuosi": 1917.0, "krit_1": null, "krit_yht": null, "esikars": 0.0, "lahde": "A 1930 käytössä", "tila": "valmis" }, "geometry": { "type": "Point", "coordinates": [ 28.519333494772056, 62.430950052699806 ] } },
{ "type": "Feature", "properties": { "fid_1": 5, "tunnus": "31", "potentiaali": "ei arvoja", "kuva1": "https://raw.githubusercontent.com/MarkusHytonenPD/maasto/main/projektit/Heinlansi_rakult/kuvat/ky_31_kuva1.jpg", "kuva2": "https://raw.githubusercontent.com/MarkusHytonenPD/maasto/main/projektit/Heinlansi_rakult/kuvat/ky_31_kuva2.jpg", "kuva3": "", "muok": null, "huom": null, "suojeluhalu": null, "nimi": null, "vtj_prt": "1022008365", "käyttötarkoitus (vanha luokitus) (selite)": "Yhden asunnon talot", "vuosi": 1920.0, "krit_1": 0.0, "krit_yht": 2.0, "esikars": 1.0, "lahde": "A 1930 käytössä", "tila": "valmis" }, "geometry": { "type": "Point", "coordinates": [ 28.550563894662581, 62.32961316882929 ] } },
{ "type": "Feature", "properties": { "fid_1": 6, "tunnus": "61", "potentiaali": "ei arvoja", "kuva1": "https://raw.githubusercontent.com/MarkusHytonenPD/maasto/main/projektit/Heinlansi_rakult/kuvat/ky_61_kuva1.jpg", "kuva2": "https://raw.githubusercontent.com/MarkusHytonenPD/maasto/main/projektit/Heinlansi_rakult/kuvat/ky_61_kuva2.jpg", "kuva3": "https://raw.githubusercontent.com/MarkusHytonenPD/maasto/main/projektit/Heinlansi_rakult/kuvat/ky_61_kuva3.jpg", "muok": null, "huom": null, "suojeluhalu": null, "nimi": null, "vtj_prt": "102438442V", "käyttötarkoitus (vanha luokitus) (selite)": "Vapaa-ajan asunnot", "vuosi": 1920.0, "krit_1": null, "krit_yht": null, "esikars": 0.0, "lahde": "Muu 1930 käytössä", "tila": "valmis" }, "geometry": { "type": "Point", "coordinates": [ 28.481558999334382, 62.397214179499308 ] } },
{ "type": "Feature", "properties": { "fid_1": 7, "tunnus": "32", "potentiaali": "paikallinen", "kuva1": "https://raw.githubusercontent.com/MarkusHytonenPD/maasto/main/projektit/Heinlansi_rakult/kuvat/ky_32_kuva1.jpg", "kuva2": "https://raw.githubusercontent.com/MarkusHytonenPD/maasto/main/projektit/Heinlansi_rakult/kuvat/ky_32_kuva2.jpg", "kuva3": "https://raw.githubusercontent.com/MarkusHytonenPD/maasto/main/projektit/Heinlansi_rakult/kuvat/ky_32_kuva3.jpg", "muok": null, "huom": null, "suojeluhalu": null, "nimi": null, "vtj_prt": "102438444X", "käyttötarkoitus (vanha luokitus) (selite)": "Vapaa-ajan asunnot", "vuosi": 1920.0, "krit_1": 0.0, "krit_yht": 2.0, "esikars": 1.0, "lahde": "Muu 1930 käytössä", "tila": "valmis" }, "geometry": { "type": "Point", "coordinates": [ 28.496464007201727, 62.395411925607796 ] } },
{ "type": "Feature", "properties": { "fid_1": 8, "tunnus": "60", "potentiaali": "ei arvoja", "kuva1": "https://raw.githubusercontent.com/MarkusHytonenPD/maasto/main/projektit/Heinlansi_rakult/kuvat/ky_60_kuva1.jpg", "kuva2": "https://raw.githubusercontent.com/MarkusHytonenPD/maasto/main/projektit/Heinlansi_rakult/kuvat/ky_60_kuva2.jpg", "kuva3": "", "muok": null, "huom": "Lisäsiipi tehty 30 vuotta sitten. Alkuperäinen rakennettu Kervisen tilan hirsistä.  Omistaja on poika joka saattaa soittaa kun kerrottu suojelumahdollisuudesta", "suojeluhalu": "ehkä", "nimi": "Rantala", "vtj_prt": "102447962Y", "käyttötarkoitus (vanha luokitus) (selite)": "Yhden asunnon talot", "vuosi": 1920.0, "krit_1": null, "krit_yht": null, "esikars": 0.0, "lahde": "A 1930 käytössä", "tila": "valmis" }, "geometry": { "type": "Point", "coordinates": [ 28.606810265116657, 62.348232817927787 ] } },
{ "type": "Feature", "properties": { "fid_1": 9, "tunnus": "36", "potentiaali": "suojelukohde", "kuva1": "https://raw.githubusercontent.com/MarkusHytonenPD/maasto/main/projektit/Heinlansi_rakult/kuvat/ky_36_kuva1.jpg", "kuva2": "https://raw.githubusercontent.com/MarkusHytonenPD/maasto/main/projektit/Heinlansi_rakult/kuvat/ky_36_kuva2.jpg", "kuva3": "https://raw.githubusercontent.com/MarkusHytonenPD/maasto/main/projektit/Heinlansi_rakult/kuvat/ky_36_kuva3.jpg", "muok": null, "huom": "Hieno paikka. Vieressä navetasta tehty asuinrakennus. Muut rakennukset alkuperäisempiä majoitus ja matkailukäytössä. Tuomo ja marja Paldanius. 0405506223 Tuomo.paldanius@gmail.com.", "suojeluhalu": "tietoa", "nimi": null, "vtj_prt": "1024670291", "käyttötarkoitus (vanha luokitus) (selite)": "Yhden asunnon talot", "vuosi": 1920.0, "krit_1": 0.0, "krit_yht": 1.0, "esikars": 1.0, "lahde": "A 1930 käytössä", "tila": "valmis" }, "geometry": { "type": "Point", "coordinates": [ 28.516735770423644, 62.419432856951097 ] } },
{ "type": "Feature", "properties": { "fid_1": 10, "tunnus": "20", "potentiaali": "ei arvoja", "kuva1": "https://raw.githubusercontent.com/MarkusHytonenPD/maasto/main/projektit/Heinlansi_rakult/kuvat/ky_20_kuva1.jpg", "kuva2": "", "kuva3": "", "muok": null, "huom": null, "suojeluhalu": null, "nimi": null, "vtj_prt": "102496712J", "käyttötarkoitus (vanha luokitus) (selite)": "Yhden asunnon talot", "vuosi": 1920.0, "krit_1": 0.0, "krit_yht": 5.0, "esikars": 1.0, "lahde": "A 1930 käytössä", "tila": "valmis" }, "geometry": { "type": "Point", "coordinates": [ 28.60686717848586, 62.322195523900312 ] } },
{ "type": "Feature", "properties": { "fid_1": 11, "tunnus": "37", "potentiaali": "ei arvoja", "kuva1": "https://raw.githubusercontent.com/MarkusHytonenPD/maasto/main/projektit/Heinlansi_rakult/kuvat/ky_37_kuva1.jpg", "kuva2": "https://raw.githubusercontent.com/MarkusHytonenPD/maasto/main/projektit/Heinlansi_rakult/kuvat/ky_37_kuva2.jpg", "kuva3": "https://raw.githubusercontent.com/MarkusHytonenPD/maasto/main/projektit/Heinlansi_rakult/kuvat/ky_37_kuva3.jpg", "muok": null, "huom": null, "suojeluhalu": null, "nimi": null, "vtj_prt": "102506392T", "käyttötarkoitus (vanha luokitus) (selite)": "Yhden asunnon talot", "vuosi": 1920.0, "krit_1": 0.0, "krit_yht": 1.0, "esikars": 1.0, "lahde": "A 1930 käytössä", "tila": "valmis" }, "geometry": { "type": "Point", "coordinates": [ 28.660930304222763, 62.252274349829484 ] } },
{ "type": "Feature", "properties": { "fid_1": 12, "tunnus": "23", "potentiaali": "suojelukohde", "kuva1": "https://raw.githubusercontent.com/MarkusHytonenPD/maasto/main/projektit/Heinlansi_rakult/kuvat/ky_23_kuva1.jpg", "kuva2": "https://raw.githubusercontent.com/MarkusHytonenPD/maasto/main/projektit/Heinlansi_rakult/kuvat/ky_23_kuva2.jpg", "kuva3": "", "muok": null, "huom": "Nävyllä paikalla. Vanha kansakoulu. Trompi tuhonnut rakennukset. Katot lentäneet. Tomi Tirkkonen  0405539300 Anneli 0400376940 Mika 0405539400. Pojanpoika Lari voisi olla innokas jatkaminen", "suojeluhalu": "tietoa", "nimi": null, "vtj_prt": "102563087N", "käyttötarkoitus (vanha luokitus) (selite)": "Yhden asunnon talot", "vuosi": 1920.0, "krit_1": 0.0, "krit_yht": 4.0, "esikars": 1.0, "lahde": "A 1930 käytössä", "tila": "omistaja" }, "geometry": { "type": "Point", "coordinates": [ 28.329906447474418, 62.418473511566297 ] } },
{ "type": "Feature", "properties": { "fid_1": 13, "tunnus": "59", "potentiaali": "paikallinen", "kuva1": "https://raw.githubusercontent.com/MarkusHytonenPD/maasto/main/projektit/Heinlansi_rakult/kuvat/ky_59_kuva1.jpg", "kuva2": "https://raw.githubusercontent.com/MarkusHytonenPD/maasto/main/projektit/Heinlansi_rakult/kuvat/ky_59_kuva2.jpg", "kuva3": "https://raw.githubusercontent.com/MarkusHytonenPD/maasto/main/projektit/Heinlansi_rakult/kuvat/ky_59_kuva3.jpg", "muok": null, "huom": null, "suojeluhalu": null, "nimi": "Kimpansaari", "vtj_prt": "102591646X", "käyttötarkoitus (vanha luokitus) (selite)": "Vapaa-ajan asunnot", "vuosi": 1920.0, "krit_1": null, "krit_yht": null, "esikars": 0.0, "lahde": "Muu 1930 käytössä", "tila": "valmis" }, "geometry": { "type": "Point", "coordinates": [ 28.719813206971207, 62.344031317496977 ] } },
{ "type": "Feature", "properties": { "fid_1": 14, "tunnus": "38", "potentiaali": "paikallinen", "kuva1": "https://raw.githubusercontent.com/MarkusHytonenPD/maasto/main/projektit/Heinlansi_rakult/kuvat/ky_38_kuva1.jpg", "kuva2": "https://raw.githubusercontent.com/MarkusHytonenPD/maasto/main/projektit/Heinlansi_rakult/kuvat/ky_38_kuva2.jpg", "kuva3": "https://raw.githubusercontent.com/MarkusHytonenPD/maasto/main/projektit/Heinlansi_rakult/kuvat/ky_38_kuva3.jpg", "muok": null, "huom": "Antti Kilpeläinen 0465511247", "suojeluhalu": "tietoa", "nimi": "Kolla", "vtj_prt": "102601177C", "käyttötarkoitus (vanha luokitus) (selite)": "Yhden asunnon talot", "vuosi": 1920.0, "krit_1": 0.0, "krit_yht": 1.0, "esikars": 1.0, "lahde": "A 1930 käytössä", "tila": "omistaja" }, "geometry": { "type": "Point", "coordinates": [ 28.37212600517406, 62.436985029730508 ] } },
{ "type": "Feature", "properties": { "fid_1": 15, "tunnus": "24", "potentiaali": "ei arvoja", "kuva1": "https://raw.githubusercontent.com/MarkusHytonenPD/maasto/main/projektit/Heinlansi_rakult/kuvat/ky_24_kuva1.jpg", "kuva2": "https://raw.githubusercontent.com/MarkusHytonenPD/maasto/main/projektit/Heinlansi_rakult/kuvat/ky_24_kuva2.jpg", "kuva3": "https://raw.githubusercontent.com/MarkusHytonenPD/maasto/main/projektit/Heinlansi_rakult/kuvat/ky_24_kuva3.jpg", "muok": null, "huom": null, "suojeluhalu": null, "nimi": null, "vtj_prt": "102601180F", "käyttötarkoitus (vanha luokitus) (selite)": "Vapaa-ajan asunnot", "vuosi": 1920.0, "krit_1": 2.0, "krit_yht": 4.0, "esikars": 1.0, "lahde": "Muu 1930 käytössä", "tila": "valmis" }, "geometry": { "type": "Point", "coordinates": [ 28.290491456316996, 62.471651779116904 ] } },
{ "type": "Feature", "properties": { "fid_1": 16, "tunnus": "39", "potentiaali": "paikallinen", "kuva1": "https://raw.githubusercontent.com/MarkusHytonenPD/maasto/main/projektit/Heinlansi_rakult/kuvat/ky_39_kuva1.jpg", "kuva2": "https://raw.githubusercontent.com/MarkusHytonenPD/maasto/main/projektit/Heinlansi_rakult/kuvat/ky_39_kuva2.jpg", "kuva3": "https://raw.githubusercontent.com/MarkusHytonenPD/maasto/main/projektit/Heinlansi_rakult/kuvat/ky_39_kuva3.jpg", "muok": null, "huom": null, "suojeluhalu": null, "nimi": "Louhiranta", "vtj_prt": "1026198934", "käyttötarkoitus (vanha luokitus) (selite)": "Vapaa-ajan asunnot", "vuosi": 1920.0, "krit_1": 0.0, "krit_yht": 1.0, "esikars": 1.0, "lahde": "Muu 1930 käytössä", "tila": "valmis" }, "geometry": { "type": "Point", "coordinates": [ 28.608878338301661, 62.298442923834742 ] } },
{ "type": "Feature", "properties": { "fid_1": 17, "tunnus": "47", "potentiaali": "paikallinen", "kuva1": "https://raw.githubusercontent.com/MarkusHytonenPD/maasto/main/projektit/Heinlansi_rakult/kuvat/ky_47_kuva1.jpg", "kuva2": "https://raw.githubusercontent.com/MarkusHytonenPD/maasto/main/projektit/Heinlansi_rakult/kuvat/ky_47_kuva2.jpg", "kuva3": "https://raw.githubusercontent.com/MarkusHytonenPD/maasto/main/projektit/Heinlansi_rakult/kuvat/ky_47_kuva3.jpg", "muok": null, "huom": "Näkyvällä paikalla reitille", "suojeluhalu": null, "nimi": "Vaaluniemi", "vtj_prt": "102629495V", "käyttötarkoitus (vanha luokitus) (selite)": "Vapaa-ajan asunnot", "vuosi": 1920.0, "krit_1": 2.0, "krit_yht": null, "esikars": 1.0, "lahde": "Muu 1930 käytössä", "tila": "valmis" }, "geometry": { "type": "Point", "coordinates": [ 28.631370596921556, 62.295693726089119 ] } },
{ "type": "Feature", "properties": { "fid_1": 18, "tunnus": "25", "potentiaali": "paikallinen", "kuva1": "https://raw.githubusercontent.com/MarkusHytonenPD/maasto/main/projektit/Heinlansi_rakult/kuvat/ky_25_kuva1.jpg", "kuva2": "https://raw.githubusercontent.com/MarkusHytonenPD/maasto/main/projektit/Heinlansi_rakult/kuvat/ky_25_kuva2.jpg", "kuva3": "", "muok": null, "huom": null, "suojeluhalu": null, "nimi": null, "vtj_prt": "1030544481", "käyttötarkoitus (vanha luokitus) (selite)": "Vapaa-ajan asunnot", "vuosi": 1920.0, "krit_1": 2.0, "krit_yht": 4.0, "esikars": 1.0, "lahde": "Muu 1930 käytössä", "tila": "valmis" }, "geometry": { "type": "Point", "coordinates": [ 28.773923748303599, 62.32687155501398 ] } },
{ "type": "Feature", "properties": { "fid_1": 19, "tunnus": "22", "potentiaali": "suojelukohde", "kuva1": "https://raw.githubusercontent.com/MarkusHytonenPD/maasto/main/projektit/Heinlansi_rakult/kuvat/ky_22_kuva1.jpg", "kuva2": "https://raw.githubusercontent.com/MarkusHytonenPD/maasto/main/projektit/Heinlansi_rakult/kuvat/ky_22_kuva2.jpg", "kuva3": "https://raw.githubusercontent.com/MarkusHytonenPD/maasto/main/projektit/Heinlansi_rakult/kuvat/ky_22_kuva3.jpg", "muok": null, "huom": "1903 rakennettu arviolta. Savusauna lienee vanhempi. Pilpan päätila. Vielä vanhempi ollut vieressä. Se viety rantsalmelle. Veli-Matti ja Hilkka-Liisa Taavitsainen  velimt@taavit.fi hilkka@taavit.fi", "suojeluhalu": "tietoa", "nimi": "Pilppa", "vtj_prt": "1030544857", "käyttötarkoitus (vanha luokitus) (selite)": "Vapaa-ajan asunnot", "vuosi": 1920.0, "krit_1": 2.0, "krit_yht": 5.0, "esikars": 1.0, "lahde": "Muu 1930 käytössä", "tila": "valmis" }, "geometry": { "type": "Point", "coordinates": [ 28.777022025754068, 62.326706295754484 ] } },
{ "type": "Feature", "properties": { "fid_1": 20, "tunnus": "40", "potentiaali": "ei arvoja", "kuva1": "https://raw.githubusercontent.com/MarkusHytonenPD/maasto/main/projektit/Heinlansi_rakult/kuvat/ky_40_kuva1.jpg", "kuva2": "", "kuva3": "", "muok": null, "huom": null, "suojeluhalu": null, "nimi": null, "vtj_prt": "102467117V", "käyttötarkoitus (vanha luokitus) (selite)": "Yhden asunnon talot", "vuosi": 1922.0, "krit_1": 0.0, "krit_yht": 1.0, "esikars": 1.0, "lahde": "A 1930 käytössä", "tila": "valmis" }, "geometry": { "type": "Point", "coordinates": [ 28.518869549390296, 62.4187452613197 ] } },
{ "type": "Feature", "properties": { "fid_1": 21, "tunnus": "41", "potentiaali": "ei arvoja", "kuva1": "https://raw.githubusercontent.com/MarkusHytonenPD/maasto/main/projektit/Heinlansi_rakult/kuvat/ky_41_kuva1.jpg", "kuva2": "https://raw.githubusercontent.com/MarkusHytonenPD/maasto/main/projektit/Heinlansi_rakult/kuvat/ky_41_kuva2.jpg", "kuva3": "", "muok": null, "huom": null, "suojeluhalu": "ei", "nimi": null, "vtj_prt": "102496621L", "käyttötarkoitus (vanha luokitus) (selite)": "Yhden asunnon talot", "vuosi": 1924.0, "krit_1": 0.0, "krit_yht": 1.0, "esikars": 1.0, "lahde": "A 1930 käytössä", "tila": "valmis" }, "geometry": { "type": "Point", "coordinates": [ 28.544144029504448, 62.326398645546661 ] } },
{ "type": "Feature", "properties": { "fid_1": 22, "tunnus": "33", "potentiaali": "ei arvoja", "kuva1": "https://raw.githubusercontent.com/MarkusHytonenPD/maasto/main/projektit/Heinlansi_rakult/kuvat/ky_33_kuva1.jpg", "kuva2": "https://raw.githubusercontent.com/MarkusHytonenPD/maasto/main/projektit/Heinlansi_rakult/kuvat/ky_33_kuva2.jpg", "kuva3": "", "muok": null, "huom": null, "suojeluhalu": null, "nimi": null, "vtj_prt": "102379946W", "käyttötarkoitus (vanha luokitus) (selite)": "Yhden asunnon talot", "vuosi": 1925.0, "krit_1": 1.0, "krit_yht": 2.0, "esikars": 1.0, "lahde": "A 1930 käytössä", "tila": "valmis" }, "geometry": { "type": "Point", "coordinates": [ 28.459845285578567, 62.331896758874031 ] } },
{ "type": "Feature", "properties": { "fid_1": 23, "tunnus": "42", "potentiaali": "ei arvoja", "kuva1": "https://raw.githubusercontent.com/MarkusHytonenPD/maasto/main/projektit/Heinlansi_rakult/kuvat/ky_42_kuva1.jpg", "kuva2": "", "kuva3": "", "muok": null, "huom": null, "suojeluhalu": null, "nimi": null, "vtj_prt": "1023897760", "käyttötarkoitus (vanha luokitus) (selite)": "Yhden asunnon talot", "vuosi": 1925.0, "krit_1": 0.0, "krit_yht": 1.0, "esikars": 1.0, "lahde": "A 1930 käytössä", "tila": "valmis" }, "geometry": { "type": "Point", "coordinates": [ 28.470032364001248, 62.328997358882603 ] } },
{ "type": "Feature", "properties": { "fid_1": 24, "tunnus": "43", "potentiaali": "ei arvoja", "kuva1": "https://raw.githubusercontent.com/MarkusHytonenPD/maasto/main/projektit/Heinlansi_rakult/kuvat/ky_43_kuva1.jpg", "kuva2": "", "kuva3": "", "muok": null, "huom": null, "suojeluhalu": null, "nimi": null, "vtj_prt": "1024670955", "käyttötarkoitus (vanha luokitus) (selite)": "Yhden asunnon talot", "vuosi": 1926.0, "krit_1": 0.0, "krit_yht": 1.0, "esikars": 1.0, "lahde": "A 1930 käytössä", "tila": "valmis" }, "geometry": { "type": "Point", "coordinates": [ 28.502438081767341, 62.398418035649748 ] } },
{ "type": "Feature", "properties": { "fid_1": 25, "tunnus": "58", "potentiaali": "ei arvoja", "kuva1": "https://raw.githubusercontent.com/MarkusHytonenPD/maasto/main/projektit/Heinlansi_rakult/kuvat/ky_58_kuva1.jpg", "kuva2": "https://raw.githubusercontent.com/MarkusHytonenPD/maasto/main/projektit/Heinlansi_rakult/kuvat/ky_58_kuva2.jpg", "kuva3": "https://raw.githubusercontent.com/MarkusHytonenPD/maasto/main/projektit/Heinlansi_rakult/kuvat/ky_58_kuva3.jpg", "muok": null, "huom": null, "suojeluhalu": null, "nimi": null, "vtj_prt": "102582239F", "käyttötarkoitus (vanha luokitus) (selite)": "Vapaa-ajan asunnot", "vuosi": 1927.0, "krit_1": null, "krit_yht": null, "esikars": 0.0, "lahde": "Muu 1930 käytössä", "tila": "valmis" }, "geometry": { "type": "Point", "coordinates": [ 28.663571829507138, 62.39615601770344 ] } },
{ "type": "Feature", "properties": { "fid_1": 26, "tunnus": "57", "potentiaali": "ei arvoja", "kuva1": "", "kuva2": "", "kuva3": "", "muok": null, "huom": null, "suojeluhalu": null, "nimi": null, "vtj_prt": "103102392L", "käyttötarkoitus (vanha luokitus) (selite)": "Yhden asunnon talot", "vuosi": 1931.0, "krit_1": null, "krit_yht": null, "esikars": 0.0, "lahde": "A 1950 käytössä", "tila": "valmis" }, "geometry": { "type": "Point", "coordinates": [ 28.732965921760339, 62.236803506017829 ] } },
{ "type": "Feature", "properties": { "fid_1": 27, "tunnus": "34", "potentiaali": "ei arvoja", "kuva1": "https://raw.githubusercontent.com/MarkusHytonenPD/maasto/main/projektit/Heinlansi_rakult/kuvat/ky_34_kuva1.jpg", "kuva2": "", "kuva3": "", "muok": null, "huom": null, "suojeluhalu": null, "nimi": null, "vtj_prt": "1024479652", "käyttötarkoitus (vanha luokitus) (selite)": "Yhden asunnon talot", "vuosi": 1932.0, "krit_1": 0.0, "krit_yht": 2.0, "esikars": 1.0, "lahde": "A 1950 käytössä", "tila": "valmis" }, "geometry": { "type": "Point", "coordinates": [ 28.606413107293172, 62.350921865443766 ] } },
{ "type": "Feature", "properties": { "fid_1": 28, "tunnus": "56", "potentiaali": "paikallinen", "kuva1": "https://raw.githubusercontent.com/MarkusHytonenPD/maasto/main/projektit/Heinlansi_rakult/kuvat/ky_56_kuva1.jpg", "kuva2": "https://raw.githubusercontent.com/MarkusHytonenPD/maasto/main/projektit/Heinlansi_rakult/kuvat/ky_56_kuva2.jpg", "kuva3": "https://raw.githubusercontent.com/MarkusHytonenPD/maasto/main/projektit/Heinlansi_rakult/kuvat/ky_56_kuva3.jpg", "muok": null, "huom": "Uusi omakotitalo vieressä.", "suojeluhalu": null, "nimi": "Ritomäki", "vtj_prt": "102619996E", "käyttötarkoitus (vanha luokitus) (selite)": "Yhden asunnon talot", "vuosi": 1932.0, "krit_1": null, "krit_yht": null, "esikars": 0.0, "lahde": "A 1950 käytössä", "tila": "valmis" }, "geometry": { "type": "Point", "coordinates": [ 28.693658617565863, 62.313883959540689 ] } },
{ "type": "Feature", "properties": { "fid_1": 29, "tunnus": "55", "potentiaali": "ei arvoja", "kuva1": "https://raw.githubusercontent.com/MarkusHytonenPD/maasto/main/projektit/Heinlansi_rakult/kuvat/ky_55_kuva1.jpg", "kuva2": "", "kuva3": "", "muok": "2026-08-15T10:59:07.890Z", "huom": "Tehty lisäsiipi eteisen suuntaan", "suojeluhalu": "ei", "nimi": null, "vtj_prt": "102438569Y", "käyttötarkoitus (vanha luokitus) (selite)": "Yhden asunnon talot", "vuosi": 1938.0, "krit_1": null, "krit_yht": null, "esikars": 0.0, "lahde": "A 1950 käytössä", "tila": "valmis" }, "geometry": { "type": "Point", "coordinates": [ 28.610496402050778, 62.356459066196933 ] } },
{ "type": "Feature", "properties": { "fid_1": 30, "tunnus": "46", "potentiaali": "ei arvoja", "kuva1": "https://raw.githubusercontent.com/MarkusHytonenPD/maasto/main/projektit/Heinlansi_rakult/kuvat/ky_46_kuva1.jpg", "kuva2": "https://raw.githubusercontent.com/MarkusHytonenPD/maasto/main/projektit/Heinlansi_rakult/kuvat/ky_46_kuva2.jpg", "kuva3": "", "muok": null, "huom": null, "suojeluhalu": null, "nimi": null, "vtj_prt": "1025631346", "käyttötarkoitus (vanha luokitus) (selite)": "Yhden asunnon talot", "vuosi": 1938.0, "krit_1": 0.0, "krit_yht": 0.0, "esikars": 1.0, "lahde": "A 1950 käytössä", "tila": "valmis" }, "geometry": { "type": "Point", "coordinates": [ 28.387977555991512, 62.393976472263056 ] } },
{ "type": "Feature", "properties": { "fid_1": 31, "tunnus": "54", "potentiaali": "ei arvoja", "kuva1": "https://raw.githubusercontent.com/MarkusHytonenPD/maasto/main/projektit/Heinlansi_rakult/kuvat/ky_54_kuva1.jpg", "kuva2": "https://raw.githubusercontent.com/MarkusHytonenPD/maasto/main/projektit/Heinlansi_rakult/kuvat/ky_54_kuva2.jpg", "kuva3": "https://raw.githubusercontent.com/MarkusHytonenPD/maasto/main/projektit/Heinlansi_rakult/kuvat/ky_54_kuva3.jpg", "muok": null, "huom": null, "suojeluhalu": null, "nimi": null, "vtj_prt": "102601176B", "käyttötarkoitus (vanha luokitus) (selite)": "Yhden asunnon talot", "vuosi": 1938.0, "krit_1": null, "krit_yht": null, "esikars": 0.0, "lahde": "A 1950 käytössä", "tila": "valmis" }, "geometry": { "type": "Point", "coordinates": [ 28.387324204583784, 62.427532072888205 ] } },
{ "type": "Feature", "properties": { "fid_1": 32, "tunnus": "53", "potentiaali": "paikallinen", "kuva1": "https://raw.githubusercontent.com/MarkusHytonenPD/maasto/main/projektit/Heinlansi_rakult/kuvat/ky_53_kuva1.jpg", "kuva2": "https://raw.githubusercontent.com/MarkusHytonenPD/maasto/main/projektit/Heinlansi_rakult/kuvat/ky_53_kuva2.jpg", "kuva3": "", "muok": null, "huom": "Ollut myös väliaikaisesti vanha kansakoulu. Elintasosiipi tehty. ", "suojeluhalu": "ehkä", "nimi": null, "vtj_prt": "102553331Y", "käyttötarkoitus (vanha luokitus) (selite)": "Yhden asunnon talot", "vuosi": 1939.0, "krit_1": null, "krit_yht": null, "esikars": 0.0, "lahde": "A 1950 käytössä", "tila": "omistaja" }, "geometry": { "type": "Point", "coordinates": [ 28.328461644966445, 62.418753868975799 ] } },
{ "type": "Feature", "properties": { "fid_1": 33, "tunnus": "26", "potentiaali": "ei arvoja", "kuva1": "https://raw.githubusercontent.com/MarkusHytonenPD/maasto/main/projektit/Heinlansi_rakult/kuvat/ky_26_kuva1.jpg", "kuva2": "", "kuva3": "", "muok": null, "huom": null, "suojeluhalu": null, "nimi": null, "vtj_prt": "102438458C", "käyttötarkoitus (vanha luokitus) (selite)": "Yhden asunnon talot", "vuosi": 1945.0, "krit_1": 2.0, "krit_yht": 4.0, "esikars": 1.0, "lahde": "A 1950 käytössä", "tila": "valmis" }, "geometry": { "type": "Point", "coordinates": [ 28.50557112805053, 62.394918768518821 ] } },
{ "type": "Feature", "properties": { "fid_1": 34, "tunnus": "29", "potentiaali": "ei arvoja", "kuva1": "https://raw.githubusercontent.com/MarkusHytonenPD/maasto/main/projektit/Heinlansi_rakult/kuvat/ky_29_kuva1.jpg", "kuva2": "", "kuva3": "", "muok": null, "huom": null, "suojeluhalu": null, "nimi": null, "vtj_prt": "102496626S", "käyttötarkoitus (vanha luokitus) (selite)": "Yhden asunnon talot", "vuosi": 1945.0, "krit_1": 2.0, "krit_yht": 3.0, "esikars": 1.0, "lahde": "A 1950 käytössä", "tila": "valmis" }, "geometry": { "type": "Point", "coordinates": [ 28.554703599643986, 62.347702550327938 ] } },
{ "type": "Feature", "properties": { "fid_1": 35, "tunnus": "30", "potentiaali": "ei arvoja", "kuva1": "https://raw.githubusercontent.com/MarkusHytonenPD/maasto/main/projektit/Heinlansi_rakult/kuvat/ky_30_kuva1.jpg", "kuva2": "https://raw.githubusercontent.com/MarkusHytonenPD/maasto/main/projektit/Heinlansi_rakult/kuvat/ky_30_kuva2.jpg", "kuva3": "", "muok": null, "huom": null, "suojeluhalu": null, "nimi": null, "vtj_prt": "1026295300", "käyttötarkoitus (vanha luokitus) (selite)": "Yhden asunnon talot", "vuosi": 1945.0, "krit_1": 2.0, "krit_yht": 2.0, "esikars": 0.0, "lahde": "A 1950 käytössä", "tila": "valmis" }, "geometry": { "type": "Point", "coordinates": [ 28.701977490731007, 62.283210775655 ] } },
{ "type": "Feature", "properties": { "fid_1": 36, "tunnus": "52", "potentiaali": "ei arvoja", "kuva1": "", "kuva2": "", "kuva3": "", "muok": null, "huom": "Ei rakennusta", "suojeluhalu": null, "nimi": null, "vtj_prt": "1024768240", "käyttötarkoitus (vanha luokitus) (selite)": "Yhden asunnon talot", "vuosi": 1946.0, "krit_1": null, "krit_yht": null, "esikars": 0.0, "lahde": "A 1950 käytössä", "tila": "valmis" }, "geometry": { "type": "Point", "coordinates": [ 28.457011895728545, 62.36586246493426 ] } },
{ "type": "Feature", "properties": { "fid_1": 37, "tunnus": "27", "potentiaali": "ei arvoja", "kuva1": "https://raw.githubusercontent.com/MarkusHytonenPD/maasto/main/projektit/Heinlansi_rakult/kuvat/ky_27_kuva1.jpg", "kuva2": "https://raw.githubusercontent.com/MarkusHytonenPD/maasto/main/projektit/Heinlansi_rakult/kuvat/ky_27_kuva2.jpg", "kuva3": "", "muok": null, "huom": null, "suojeluhalu": null, "nimi": null, "vtj_prt": "1026295001", "käyttötarkoitus (vanha luokitus) (selite)": "Yhden asunnon talot", "vuosi": 1946.0, "krit_1": 2.0, "krit_yht": 4.0, "esikars": 1.0, "lahde": "A 1950 käytössä", "tila": "valmis" }, "geometry": { "type": "Point", "coordinates": [ 28.631399753946361, 62.29623207934744 ] } },
{ "type": "Feature", "properties": { "fid_1": 38, "tunnus": "51", "potentiaali": "ei arvoja", "kuva1": "https://raw.githubusercontent.com/MarkusHytonenPD/maasto/main/projektit/Heinlansi_rakult/kuvat/ky_51_kuva1.jpg", "kuva2": "", "kuva3": "", "muok": null, "huom": "Laajennettu leveyttä ja tiiliverhous ", "suojeluhalu": "ei", "nimi": null, "vtj_prt": "102389773W", "käyttötarkoitus (vanha luokitus) (selite)": "Yhden asunnon talot", "vuosi": 1947.0, "krit_1": null, "krit_yht": null, "esikars": 0.0, "lahde": "A 1950 käytössä", "tila": "valmis" }, "geometry": { "type": "Point", "coordinates": [ 28.487903058812012, 62.336698864552353 ] } },
{ "type": "Feature", "properties": { "fid_1": 39, "tunnus": "44", "potentiaali": null, "kuva1": "https://raw.githubusercontent.com/MarkusHytonenPD/maasto/main/projektit/Heinlansi_rakult/kuvat/ky_44_kuva1.jpg", "kuva2": "", "kuva3": "", "muok": null, "huom": null, "suojeluhalu": null, "nimi": null, "vtj_prt": "102629541B", "käyttötarkoitus (vanha luokitus) (selite)": "Yhden asunnon talot", "vuosi": 1947.0, "krit_1": 0.0, "krit_yht": 1.0, "esikars": 1.0, "lahde": "A 1950 käytössä", "tila": "valmis" }, "geometry": { "type": "Point", "coordinates": [ 28.67059487861529, 62.269280185731006 ] } },
{ "type": "Feature", "properties": { "fid_1": 40, "tunnus": "45", "potentiaali": "ei arvoja", "kuva1": "https://raw.githubusercontent.com/MarkusHytonenPD/maasto/main/projektit/Heinlansi_rakult/kuvat/ky_45_kuva1.jpg", "kuva2": "https://raw.githubusercontent.com/MarkusHytonenPD/maasto/main/projektit/Heinlansi_rakult/kuvat/ky_45_kuva2.jpg", "kuva3": "", "muok": null, "huom": null, "suojeluhalu": null, "nimi": null, "vtj_prt": "102639342H", "käyttötarkoitus (vanha luokitus) (selite)": "Yhden asunnon talot", "vuosi": 1947.0, "krit_1": 0.0, "krit_yht": 1.0, "esikars": 1.0, "lahde": "A 1950 käytössä", "tila": "valmis" }, "geometry": { "type": "Point", "coordinates": [ 28.611123087103621, 62.330307435315305 ] } },
{ "type": "Feature", "properties": { "fid_1": 41, "tunnus": "50", "potentiaali": "ei arvoja", "kuva1": "https://raw.githubusercontent.com/MarkusHytonenPD/maasto/main/projektit/Heinlansi_rakult/kuvat/ky_50_kuva1.jpg", "kuva2": "https://raw.githubusercontent.com/MarkusHytonenPD/maasto/main/projektit/Heinlansi_rakult/kuvat/ky_50_kuva2.jpg", "kuva3": "https://raw.githubusercontent.com/MarkusHytonenPD/maasto/main/projektit/Heinlansi_rakult/kuvat/ky_50_kuva3.jpg", "muok": null, "huom": null, "suojeluhalu": "ei", "nimi": null, "vtj_prt": "1005384338", "käyttötarkoitus (vanha luokitus) (selite)": "Yhden asunnon talot", "vuosi": 1948.0, "krit_1": null, "krit_yht": null, "esikars": 0.0, "lahde": "A 1950 käytössä", "tila": "valmis" }, "geometry": { "type": "Point", "coordinates": [ 28.574221430413346, 62.282553513644515 ] } },
{ "type": "Feature", "properties": { "fid_1": 42, "tunnus": "49", "potentiaali": "ei arvoja", "kuva1": "https://raw.githubusercontent.com/MarkusHytonenPD/maasto/main/projektit/Heinlansi_rakult/kuvat/ky_49_kuva1.jpg", "kuva2": "https://raw.githubusercontent.com/MarkusHytonenPD/maasto/main/projektit/Heinlansi_rakult/kuvat/ky_49_kuva2.jpg", "kuva3": "", "muok": null, "huom": null, "suojeluhalu": "ehkä", "nimi": null, "vtj_prt": "102610730J", "käyttötarkoitus (vanha luokitus) (selite)": "Yhden asunnon talot", "vuosi": 1948.0, "krit_1": null, "krit_yht": null, "esikars": 0.0, "lahde": "A 1950 käytössä", "tila": "valmis" }, "geometry": { "type": "Point", "coordinates": [ 28.585841570933589, 62.304112554448352 ] } },
{ "type": "Feature", "properties": { "fid_1": 43, "tunnus": "48", "potentiaali": "ei arvoja", "kuva1": "https://raw.githubusercontent.com/MarkusHytonenPD/maasto/main/projektit/Heinlansi_rakult/kuvat/ky_48_kuva1.jpg", "kuva2": "", "kuva3": "", "muok": null, "huom": null, "suojeluhalu": null, "nimi": null, "vtj_prt": "103102403Y", "käyttötarkoitus (vanha luokitus) (selite)": "Yhden asunnon talot", "vuosi": 1949.0, "krit_1": null, "krit_yht": null, "esikars": 0.0, "lahde": "A 1950 käytössä", "tila": "valmis" }, "geometry": { "type": "Point", "coordinates": [ 28.757012708710025, 62.241232846472116 ] } },
{ "type": "Feature", "properties": { "fid_1": 44, "tunnus": "35", "potentiaali": "ei arvoja", "kuva1": "https://raw.githubusercontent.com/MarkusHytonenPD/maasto/main/projektit/Heinlansi_rakult/kuvat/ky_35_kuva1.jpg", "kuva2": "https://raw.githubusercontent.com/MarkusHytonenPD/maasto/main/projektit/Heinlansi_rakult/kuvat/ky_35_kuva2.jpg", "kuva3": "https://raw.githubusercontent.com/MarkusHytonenPD/maasto/main/projektit/Heinlansi_rakult/kuvat/ky_35_kuva3.jpg", "muok": null, "huom": null, "suojeluhalu": null, "nimi": null, "vtj_prt": "1025533010", "käyttötarkoitus (vanha luokitus) (selite)": "Yhden asunnon talot", "vuosi": 1950.0, "krit_1": 0.0, "krit_yht": 2.0, "esikars": 1.0, "lahde": "A 1950 käytössä", "tila": "valmis" }, "geometry": { "type": "Point", "coordinates": [ 28.281059113379492, 62.429480583588926 ] } },
{ "type": "Feature", "properties": { "fid_1": 45, "tunnus": "10", "potentiaali": "suojelukohde", "kuva1": "https://raw.githubusercontent.com/MarkusHytonenPD/maasto/main/projektit/Heinlansi_rakult/kuvat/ky_10_kuva1.jpg", "kuva2": "https://raw.githubusercontent.com/MarkusHytonenPD/maasto/main/projektit/Heinlansi_rakult/kuvat/ky_10_kuva2.jpg", "kuva3": "", "muok": null, "huom": null, "suojeluhalu": null, "nimi": "Mäntysalon metsäkämppä", "vtj_prt": null, "käyttötarkoitus (vanha luokitus) (selite)": null, "vuosi": null, "krit_1": null, "krit_yht": null, "esikars": null, "lahde": "Maakuntakaava", "tila": "valmis" }, "geometry": { "type": "Point", "coordinates": [ 28.772046560249692, 62.296177974186371 ] } },
{ "type": "Feature", "properties": { "fid_1": 46, "tunnus": "1", "potentiaali": "paikallinen", "kuva1": "https://raw.githubusercontent.com/MarkusHytonenPD/maasto/main/projektit/Heinlansi_rakult/kuvat/ky_1_kuva1.jpg", "kuva2": "", "kuva3": "", "muok": null, "huom": "Tämä on ratamestarin rakennus. Se on asuinkäytössä ja melko hyvässä kunnossa. Asemarakennus lännessä erikseen erikseen omistajalla. ", "suojeluhalu": "ehkä", "nimi": "Asemarakennus, Syrjä", "vtj_prt": null, "käyttötarkoitus (vanha luokitus) (selite)": null, "vuosi": null, "krit_1": null, "krit_yht": null, "esikars": null, "lahde": "YK", "tila": "valmis" }, "geometry": { "type": "Point", "coordinates": [ 28.368665405660174, 62.356942613714423 ] } },
{ "type": "Feature", "properties": { "fid_1": 47, "tunnus": "2", "potentiaali": null, "kuva1": "https://raw.githubusercontent.com/MarkusHytonenPD/maasto/main/projektit/Heinlansi_rakult/kuvat/ky_2_kuva1.jpg", "kuva2": "https://raw.githubusercontent.com/MarkusHytonenPD/maasto/main/projektit/Heinlansi_rakult/kuvat/ky_2_kuva2.jpg", "kuva3": "https://raw.githubusercontent.com/MarkusHytonenPD/maasto/main/projektit/Heinlansi_rakult/kuvat/ky_2_kuva3.jpg", "muok": null, "huom": "Maakuntakaavoittajat soittaisi 040 6582206 Karoliina Siekkinen. ", "suojeluhalu": "ehkä", "nimi": "Multala Hasunmäki", "vtj_prt": null, "käyttötarkoitus (vanha luokitus) (selite)": null, "vuosi": null, "krit_1": null, "krit_yht": null, "esikars": null, "lahde": "Maakuntakaava", "tila": "valmis" }, "geometry": { "type": "Point", "coordinates": [ 28.580335801374488, 62.425680911650581 ] } },
{ "type": "Feature", "properties": { "fid_1": 48, "tunnus": "3", "potentiaali": "ei arvoja", "kuva1": "https://raw.githubusercontent.com/MarkusHytonenPD/maasto/main/projektit/Heinlansi_rakult/kuvat/ky_3_kuva1.jpg", "kuva2": "https://raw.githubusercontent.com/MarkusHytonenPD/maasto/main/projektit/Heinlansi_rakult/kuvat/ky_3_kuva2.jpg", "kuva3": "https://raw.githubusercontent.com/MarkusHytonenPD/maasto/main/projektit/Heinlansi_rakult/kuvat/ky_3_kuva3.jpg", "muok": null, "huom": null, "suojeluhalu": null, "nimi": "Koivumäki", "vtj_prt": null, "käyttötarkoitus (vanha luokitus) (selite)": null, "vuosi": null, "krit_1": null, "krit_yht": null, "esikars": null, "lahde": "Maakuntakaava", "tila": "valmis" }, "geometry": { "type": "Point", "coordinates": [ 28.547691943835336, 62.372520275650686 ] } },
{ "type": "Feature", "properties": { "fid_1": 49, "tunnus": "4", "potentiaali": "ei arvoja", "kuva1": "https://raw.githubusercontent.com/MarkusHytonenPD/maasto/main/projektit/Heinlansi_rakult/kuvat/ky_4_kuva1.jpg", "kuva2": "https://raw.githubusercontent.com/MarkusHytonenPD/maasto/main/projektit/Heinlansi_rakult/kuvat/ky_4_kuva2.jpg", "kuva3": "", "muok": null, "huom": "Huonokunto. Näyttävä paikka ja hyvin saavutettavussa", "suojeluhalu": "ei", "nimi": "Vanhainkoti Raaminmäki", "vtj_prt": null, "käyttötarkoitus (vanha luokitus) (selite)": null, "vuosi": null, "krit_1": null, "krit_yht": null, "esikars": null, "lahde": "YK", "tila": "valmis" }, "geometry": { "type": "Point", "coordinates": [ 28.634586487471495, 62.389420290264169 ] } },
{ "type": "Feature", "properties": { "fid_1": 50, "tunnus": "5", "potentiaali": "suojelukohde", "kuva1": "https://raw.githubusercontent.com/MarkusHytonenPD/maasto/main/projektit/Heinlansi_rakult/kuvat/ky_5_kuva1.jpg", "kuva2": "https://raw.githubusercontent.com/MarkusHytonenPD/maasto/main/projektit/Heinlansi_rakult/kuvat/ky_5_kuva2.jpg", "kuva3": "https://raw.githubusercontent.com/MarkusHytonenPD/maasto/main/projektit/Heinlansi_rakult/kuvat/ky_5_kuva3.jpg", "muok": null, "huom": null, "suojeluhalu": null, "nimi": "Malkkilan osuusmeijeri", "vtj_prt": null, "käyttötarkoitus (vanha luokitus) (selite)": null, "vuosi": null, "krit_1": null, "krit_yht": null, "esikars": null, "lahde": "YK", "tila": "valmis" }, "geometry": { "type": "Point", "coordinates": [ 28.608707523002362, 62.315523409273332 ] } },
{ "type": "Feature", "properties": { "fid_1": 51, "tunnus": "6", "potentiaali": "suojelukohde", "kuva1": "https://raw.githubusercontent.com/MarkusHytonenPD/maasto/main/projektit/Heinlansi_rakult/kuvat/ky_6_kuva1.jpg", "kuva2": "https://raw.githubusercontent.com/MarkusHytonenPD/maasto/main/projektit/Heinlansi_rakult/kuvat/ky_6_kuva2.jpg", "kuva3": "https://raw.githubusercontent.com/MarkusHytonenPD/maasto/main/projektit/Heinlansi_rakult/kuvat/ky_6_kuva3.jpg", "muok": null, "huom": "Näkyvällä paikalla heinävedenreitillä", "suojeluhalu": null, "nimi": "Aino Acten Huvila", "vtj_prt": null, "käyttötarkoitus (vanha luokitus) (selite)": null, "vuosi": null, "krit_1": null, "krit_yht": null, "esikars": null, "lahde": "Maakuntakaava / YK", "tila": "valmis" }, "geometry": { "type": "Point", "coordinates": [ 28.687098642358286, 62.309716998462896 ] } },
{ "type": "Feature", "properties": { "fid_1": 52, "tunnus": "7", "potentiaali": "suojelukohde", "kuva1": "https://raw.githubusercontent.com/MarkusHytonenPD/maasto/main/projektit/Heinlansi_rakult/kuvat/ky_7_kuva1.jpg", "kuva2": "https://raw.githubusercontent.com/MarkusHytonenPD/maasto/main/projektit/Heinlansi_rakult/kuvat/ky_7_kuva2.jpg", "kuva3": "", "muok": null, "huom": "Näkyvällä paikalla reitin varrella", "suojeluhalu": null, "nimi": "Koukunpolvi, Apteekkari Forsblomin huvila", "vtj_prt": null, "käyttötarkoitus (vanha luokitus) (selite)": null, "vuosi": null, "krit_1": null, "krit_yht": null, "esikars": null, "lahde": "Maakuntakaava / YK", "tila": "valmis" }, "geometry": { "type": "Point", "coordinates": [ 28.730270866676438, 62.297668743848128 ] } },
{ "type": "Feature", "properties": { "fid_1": 53, "tunnus": "8", "potentiaali": "paikallinen", "kuva1": "https://raw.githubusercontent.com/MarkusHytonenPD/maasto/main/projektit/Heinlansi_rakult/kuvat/ky_8_kuva1.jpg", "kuva2": "https://raw.githubusercontent.com/MarkusHytonenPD/maasto/main/projektit/Heinlansi_rakult/kuvat/ky_8_kuva2.jpg", "kuva3": "https://raw.githubusercontent.com/MarkusHytonenPD/maasto/main/projektit/Heinlansi_rakult/kuvat/ky_8_kuva3.jpg", "muok": null, "huom": null, "suojeluhalu": null, "nimi": "Juhani Ahon kalamaja", "vtj_prt": null, "käyttötarkoitus (vanha luokitus) (selite)": null, "vuosi": null, "krit_1": null, "krit_yht": null, "esikars": null, "lahde": "Maakuntakaava / YK", "tila": "valmis" }, "geometry": { "type": "Point", "coordinates": [ 28.721642522902563, 62.304228223583472 ] } },
{ "type": "Feature", "properties": { "fid_1": 54, "tunnus": "9", "potentiaali": "suojelukohde", "kuva1": "https://raw.githubusercontent.com/MarkusHytonenPD/maasto/main/projektit/Heinlansi_rakult/kuvat/ky_9_kuva1.jpg", "kuva2": "https://raw.githubusercontent.com/MarkusHytonenPD/maasto/main/projektit/Heinlansi_rakult/kuvat/ky_9_kuva2.jpg", "kuva3": "https://raw.githubusercontent.com/MarkusHytonenPD/maasto/main/projektit/Heinlansi_rakult/kuvat/ky_9_kuva3.jpg", "muok": null, "huom": "Asutaan vakituisesti. Hakelämmitys. Katto uusittu 2014. Näkyvä paikka. Omistaha: Suojelu luo rajoitteita, jotka eivät ole aina mieluisia. Voi kuitenkin osoittaa samanlaisen merkinnän kuin nyt", "suojeluhalu": "ehkä", "nimi": "Pohjantaival", "vtj_prt": null, "käyttötarkoitus (vanha luokitus) (selite)": null, "vuosi": null, "krit_1": null, "krit_yht": null, "esikars": null, "lahde": "YK", "tila": "valmis" }, "geometry": { "type": "Point", "coordinates": [ 28.67799766433361, 62.315074016668582 ] } },
{ "type": "Feature", "properties": { "fid_1": 55, "tunnus": "12", "potentiaali": "ei arvoja", "kuva1": "https://raw.githubusercontent.com/MarkusHytonenPD/maasto/main/projektit/Heinlansi_rakult/kuvat/ky_12_kuva1.jpg", "kuva2": "https://raw.githubusercontent.com/MarkusHytonenPD/maasto/main/projektit/Heinlansi_rakult/kuvat/ky_12_kuva2.jpg", "kuva3": "https://raw.githubusercontent.com/MarkusHytonenPD/maasto/main/projektit/Heinlansi_rakult/kuvat/ky_12_kuva3.jpg", "muok": null, "huom": "Jäljellä vain perustuksia ja hieman muuria", "suojeluhalu": null, "nimi": "Säynetkosken sahan ja myllyn paikka", "vtj_prt": null, "käyttötarkoitus (vanha luokitus) (selite)": null, "vuosi": null, "krit_1": null, "krit_yht": null, "esikars": null, "lahde": "Kioski", "tila": "valmis" }, "geometry": { "type": "Point", "coordinates": [ 28.604920770333329, 62.32281403255174 ] } },
{ "type": "Feature", "properties": { "fid_1": 56, "tunnus": "13", "potentiaali": "ei arvoja", "kuva1": "https://raw.githubusercontent.com/MarkusHytonenPD/maasto/main/projektit/Heinlansi_rakult/kuvat/ky_13_kuva1.jpg", "kuva2": "https://raw.githubusercontent.com/MarkusHytonenPD/maasto/main/projektit/Heinlansi_rakult/kuvat/ky_13_kuva2.jpg", "kuva3": "https://raw.githubusercontent.com/MarkusHytonenPD/maasto/main/projektit/Heinlansi_rakult/kuvat/ky_13_kuva3.jpg", "muok": null, "huom": null, "suojeluhalu": null, "nimi": "Säynetlahden seurantalo", "vtj_prt": null, "käyttötarkoitus (vanha luokitus) (selite)": null, "vuosi": null, "krit_1": null, "krit_yht": null, "esikars": null, "lahde": "Kioski", "tila": "valmis" }, "geometry": { "type": "Point", "coordinates": [ 28.638691548875663, 62.331701643098128 ] } },
{ "type": "Feature", "properties": { "fid_1": 57, "tunnus": "14", "potentiaali": null, "kuva1": "https://raw.githubusercontent.com/MarkusHytonenPD/maasto/main/projektit/Heinlansi_rakult/kuvat/ky_14_kuva1.jpg", "kuva2": "", "kuva3": "", "muok": null, "huom": null, "suojeluhalu": null, "nimi": "Pilpan kanava", "vtj_prt": null, "käyttötarkoitus (vanha luokitus) (selite)": null, "vuosi": null, "krit_1": null, "krit_yht": null, "esikars": null, "lahde": "Kioski", "tila": "valmis" }, "geometry": { "type": "Point", "coordinates": [ 28.761932900549635, 62.326576311352817 ] } },
{ "type": "Feature", "properties": { "fid_1": 58, "tunnus": "15", "potentiaali": "paikallinen", "kuva1": "https://raw.githubusercontent.com/MarkusHytonenPD/maasto/main/projektit/Heinlansi_rakult/kuvat/ky_15_kuva1.jpg", "kuva2": "https://raw.githubusercontent.com/MarkusHytonenPD/maasto/main/projektit/Heinlansi_rakult/kuvat/ky_15_kuva2.jpg", "kuva3": "https://raw.githubusercontent.com/MarkusHytonenPD/maasto/main/projektit/Heinlansi_rakult/kuvat/ky_15_kuva3.jpg", "muok": null, "huom": "Kumottavalla alueella", "suojeluhalu": null, "nimi": "Södervik", "vtj_prt": null, "käyttötarkoitus (vanha luokitus) (selite)": null, "vuosi": null, "krit_1": null, "krit_yht": null, "esikars": null, "lahde": "Kioski", "tila": "valmis" }, "geometry": { "type": "Point", "coordinates": [ 28.666493464015357, 62.341756042380382 ] } },
{ "type": "Feature", "properties": { "fid_1": 59, "tunnus": "16", "potentiaali": "paikallinen", "kuva1": "https://raw.githubusercontent.com/MarkusHytonenPD/maasto/main/projektit/Heinlansi_rakult/kuvat/ky_16_kuva1.jpg", "kuva2": "", "kuva3": "", "muok": null, "huom": null, "suojeluhalu": null, "nimi": "Heinäveden asema", "vtj_prt": null, "käyttötarkoitus (vanha luokitus) (selite)": null, "vuosi": null, "krit_1": null, "krit_yht": null, "esikars": null, "lahde": "Kioski", "tila": "valmis" }, "geometry": { "type": "Point", "coordinates": [ 28.643422191517022, 62.382760105743188 ] } },
{ "type": "Feature", "properties": { "fid_1": 60, "tunnus": "17", "potentiaali": null, "kuva1": "https://raw.githubusercontent.com/MarkusHytonenPD/maasto/main/projektit/Heinlansi_rakult/kuvat/ky_17_kuva1.jpg", "kuva2": "https://raw.githubusercontent.com/MarkusHytonenPD/maasto/main/projektit/Heinlansi_rakult/kuvat/ky_17_kuva2.jpg", "kuva3": "https://raw.githubusercontent.com/MarkusHytonenPD/maasto/main/projektit/Heinlansi_rakult/kuvat/ky_17_kuva3.jpg", "muok": null, "huom": "Ei aiempaa merkintää A kumotavalla alueella", "suojeluhalu": null, "nimi": "Pulskeala, entinen Kilpeälä", "vtj_prt": null, "käyttötarkoitus (vanha luokitus) (selite)": null, "vuosi": null, "krit_1": null, "krit_yht": null, "esikars": null, "lahde": "Kioski", "tila": "valmis" }, "geometry": { "type": "Point", "coordinates": [ 28.40960385371843, 62.39684940545866 ] } },
{ "type": "Feature", "properties": { "fid_1": 61, "tunnus": "18", "potentiaali": "ei arvoja", "kuva1": "https://raw.githubusercontent.com/MarkusHytonenPD/maasto/main/projektit/Heinlansi_rakult/kuvat/ky_18_kuva1.jpg", "kuva2": "https://raw.githubusercontent.com/MarkusHytonenPD/maasto/main/projektit/Heinlansi_rakult/kuvat/ky_18_kuva2.jpg", "kuva3": "", "muok": null, "huom": null, "suojeluhalu": null, "nimi": "Jokiniemi", "vtj_prt": null, "käyttötarkoitus (vanha luokitus) (selite)": null, "vuosi": null, "krit_1": null, "krit_yht": null, "esikars": null, "lahde": "Kioski", "tila": "valmis" }, "geometry": { "type": "Point", "coordinates": [ 28.368516989749715, 62.449251705638957 ] } }
]
}
